{
    "links": {
        "self": "http://www.neowsapp.com/rest/v1/neo/3786449?api_key=iIulBulltgU6a56xZRHN4H3l9WmuAYTsLGpBGhQ2"
    },
    "id": "3786449",
    "neo_reference_id": "3786449",
    "name": "(2017 TJ6)",
    "designation": "2017 TJ6",
    "nasa_jpl_url": "http://ssd.jpl.nasa.gov/sbdb.cgi?sstr=3786449",
    "absolute_magnitude_h": 27.6,
    "estimated_diameter": {
        "kilometers": {
            "estimated_diameter_min": 0.0080270317,
            "estimated_diameter_max": 0.0179489885
        },
        "meters": {
            "estimated_diameter_min": 8.0270316728,
            "estimated_diameter_max": 17.948988478
        },
        "miles": {
            "estimated_diameter_min": 0.0049877647,
            "estimated_diameter_max": 0.0111529809
        },
        "feet": {
            "estimated_diameter_min": 26.3354065935,
            "estimated_diameter_max": 58.8877593581
        }
    },
    "is_potentially_hazardous_asteroid": false,
    "close_approach_data": [
        {
            "close_approach_date": "2017-10-11",
            "close_approach_date_full": "2017-Oct-11 08:00",
            "epoch_date_close_approach": 1507708800000,
            "relative_velocity": {
                "kilometers_per_second": "6.3373818429",
                "kilometers_per_hour": "22814.5746344682",
                "miles_per_hour": "14176.0894444005"
            },
            "miss_distance": {
                "astronomical": "0.0181802663",
                "lunar": "7.0721235907",
                "kilometers": "2719729.114512781",
                "miles": "1689961.3072111378"
            },
            "orbiting_body": "Earth"
        },
        {
            "close_approach_date": "2083-10-21",
            "close_approach_date_full": "2083-Oct-21 21:24",
            "epoch_date_close_approach": 3591379440000,
            "relative_velocity": {
                "kilometers_per_second": "3.3153112046",
                "kilometers_per_hour": "11935.1203366015",
                "miles_per_hour": "7416.0196335955"
            },
            "miss_distance": {
                "astronomical": "0.0630176654",
                "lunar": "24.5138718406",
                "kilometers": "9427308.516212698",
                "miles": "5857857.8794953124"
            },
            "orbiting_body": "Mars"
        }
    ],
    "orbital_data": {
        "orbit_id": "2",
        "orbit_determination_date": "2017-10-20 06:22:22",
        "first_observation_date": "2017-10-15",
        "last_observation_date": "2017-10-19",
        "data_arc_in_days": 4,
        "observations_used": 21,
        "orbit_uncertainty": "8",
        "minimum_orbit_intersection": ".0135478",
        "jupiter_tisserand_invariant": "4.796",
        "epoch_osculation": "2458042.5",
        "eccentricity": ".2757129846599645",
        "semi_major_axis": "1.362752409659823",
        "inclination": "6.411567177154701",
        "ascending_node_longitude": "20.53121188828539",
        "orbital_period": "581.063860045438",
        "perihelion_distance": ".9870238754399548",
        "perihelion_argument": "329.4483561322535",
        "aphelion_distance": "1.738480943879692",
        "perihelion_time": "2458013.354033500025",
        "mean_anomaly": "18.05747812154503",
        "mean_motion": ".619553244925349",
        "equinox": "J2000",
        "orbit_class": {
            "orbit_class_type": "APO",
            "orbit_class_description": "Near-Earth asteroid orbits which cross the Earth’s orbit similar to that of 1862 Apollo",
            "orbit_class_range": "a (semi-major axis) > 1.0 AU; q (perihelion) < 1.017 AU"
        }
    },
    "is_sentry_object": false
}